start=new Date('2023-06-17T00:00:00.000Z').valueOf();
sats=[{"FILE":"3934949","NORAD_CAT_ID":"56786","RCS_SIZE":null,"GP_ID":"234098982","REF_FRAME":"TEME","APOAPSIS":"358.852","LAUNCH_DATE":"2023-05-31","PERIAPSIS":"353.914","MEAN_ANOMALY":"348.1837","MEAN_ELEMENT_THEORY":"SGP4","ECCENTRICITY":"0.00036660","TLE_LINE2":"2 56786  70.0041   6.5238 0003666 273.0483 348.1837 15.70879817  1309","MEAN_MOTION_DOT":"-0.00854629","TIME_SYSTEM":"UTC","OBJECT_NAME":"STARLINK-6341","ARG_OF_PERICENTER":"273.0483","REV_AT_EPOCH":"130","RA_OF_ASC_NODE":"6.5238","OBJECT_ID":"2023-078V","CLASSIFICATION_TYPE":"U","COUNTRY_CODE":"US","BSTAR":"-0.00755220000000","PERIOD":"91.668","OBJECT_TYPE":"PAYLOAD","INCLINATION":"70.0041","MEAN_MOTION":"15.70879817","EPOCH":"2023-06-16T22:00:00.999936","EPHEMERIS_TYPE":"0","DECAY_DATE":null,"ELEMENT_SET_NO":"999","CENTER_NAME":"EARTH","MEAN_MOTION_DDOT":"0.0000000000000","SITE":"AFWTR","TLE_LINE1":"1 56786U 23078V   23167.91667824 -.00854629  00000-0 -75522-2 0  9993","SEMIMAJOR_AXIS":"6734.518"},{"OBJECT_ID":"2023-078W","RA_OF_ASC_NODE":"6.5177","CLASSIFICATION_TYPE":"U","COUNTRY_CODE":"US","MEAN_MOTION":"15.70932385","EPOCH":"2023-06-16T22:00:00.999936","EPHEMERIS_TYPE":"0","BSTAR":"-0.00755910000000","PERIOD":"91.665","OBJECT_TYPE":"PAYLOAD","INCLINATION":"70.0026","ELEMENT_SET_NO":"999","CENTER_NAME":"EARTH","SITE":"AFWTR","MEAN_MOTION_DDOT":"0.0000000000000","SEMIMAJOR_AXIS":"6734.368","TLE_LINE1":"1 56787U 23078W   23167.91667824 -.00857062  00000-0 -75591-2 0  9994","DECAY_DATE":null,"GP_ID":"234099117","REF_FRAME":"TEME","FILE":"3934949","NORAD_CAT_ID":"56787","RCS_SIZE":null,"PERIAPSIS":"353.751","MEAN_ANOMALY":"351.3919","MEAN_ELEMENT_THEORY":"SGP4","ECCENTRICITY":"0.00036860","APOAPSIS":"358.715","LAUNCH_DATE":"2023-05-31","MEAN_MOTION_DOT":"-0.00857062","TLE_LINE2":"2 56787  70.0026   6.5177 0003686 272.7213 351.3919 15.70932385  1301","TIME_SYSTEM":"UTC","OBJECT_NAME":"STARLINK-6326","ARG_OF_PERICENTER":"272.7213","REV_AT_EPOCH":"130"},{"MEAN_MOTION_DDOT":"0.0000000000000","SITE":"AFWTR","ELEMENT_SET_NO":"999","CENTER_NAME":"EARTH","SEMIMAJOR_AXIS":"6734.430","TLE_LINE1":"1 56788U 23078X   23167.91667824 -.00853817  00000-0 -75344-2 0  9995","DECAY_DATE":null,"MEAN_MOTION":"15.70910841","EPHEMERIS_TYPE":"0","EPOCH":"2023-06-16T22:00:00.999936","PERIOD":"91.667","BSTAR":"-0.00753440000000","INCLINATION":"70.0036","OBJECT_TYPE":"PAYLOAD","CLASSIFICATION_TYPE":"U","COUNTRY_CODE":"US","OBJECT_ID":"2023-078X","RA_OF_ASC_NODE":"6.5208","OBJECT_NAME":"STARLINK-6336","TIME_SYSTEM":"UTC","REV_AT_EPOCH":"130","ARG_OF_PERICENTER":"271.4264","MEAN_MOTION_DOT":"-0.00853817","TLE_LINE2":"2 56788  70.0036   6.5208 0003674 271.4264 351.5347 15.70910841  1307","ECCENTRICITY":"0.00036740","PERIAPSIS":"353.820","MEAN_ELEMENT_THEORY":"SGP4","MEAN_ANOMALY":"351.5347","APOAPSIS":"358.769","LAUNCH_DATE":"2023-05-31","GP_ID":"234099162","REF_FRAME":"TEME","FILE":"3934949","RCS_SIZE":null,"NORAD_CAT_ID":"56788"},{"SEMIMAJOR_AXIS":"6734.082","TLE_LINE1":"1 56789U 23078Y   23167.91667824 -.00853870  00000-0 -74962-2 0  9990","MEAN_MOTION_DDOT":"0.0000000000000","SITE":"AFWTR","ELEMENT_SET_NO":"999","CENTER_NAME":"EARTH","DECAY_DATE":null,"EPHEMERIS_TYPE":"0","EPOCH":"2023-06-16T22:00:00.999936","MEAN_MOTION":"15.71032457","INCLINATION":"70.0032","OBJECT_TYPE":"PAYLOAD","PERIOD":"91.659","BSTAR":"-0.00749620000000","COUNTRY_CODE":"US","CLASSIFICATION_TYPE":"U","OBJECT_ID":"2023-078Y","RA_OF_ASC_NODE":"6.5117","REV_AT_EPOCH":"130","ARG_OF_PERICENTER":"272.7682","OBJECT_NAME":"STARLINK-6325","TIME_SYSTEM":"UTC","MEAN_MOTION_DOT":"-0.00853870","TLE_LINE2":"2 56789  70.0032   6.5117 0003726 272.7682 357.0996 15.71032457  1309","ECCENTRICITY":"0.00037260","MEAN_ANOMALY":"357.0996","PERIAPSIS":"353.438","MEAN_ELEMENT_THEORY":"SGP4","LAUNCH_DATE":"2023-05-31","APOAPSIS":"358.456","REF_FRAME":"TEME","GP_ID":"234099061","FILE":"3934949","NORAD_CAT_ID":"56789","RCS_SIZE":null},{"REF_FRAME":"TEME","GP_ID":"234099221","NORAD_CAT_ID":"56790","FILE":"3934949","RCS_SIZE":null,"MEAN_ELEMENT_THEORY":"SGP4","PERIAPSIS":"353.796","MEAN_ANOMALY":"350.9201","ECCENTRICITY":"0.00036550","LAUNCH_DATE":"2023-05-31","APOAPSIS":"358.718","MEAN_MOTION_DOT":"-0.00860295","TLE_LINE2":"2 56790  70.0032   6.5197 0003655 272.6168 350.9201 15.70923998  1307","ARG_OF_PERICENTER":"272.6168","REV_AT_EPOCH":"130","TIME_SYSTEM":"UTC","OBJECT_NAME":"STARLINK-6345","OBJECT_ID":"2023-078Z","RA_OF_ASC_NODE":"6.5197","COUNTRY_CODE":"US","CLASSIFICATION_TYPE":"U","EPOCH":"2023-06-16T22:00:00.999936","EPHEMERIS_TYPE":"0","MEAN_MOTION":"15.70923998","OBJECT_TYPE":"PAYLOAD","INCLINATION":"70.0032","BSTAR":"-0.00759340000000","PERIOD":"91.666","TLE_LINE1":"1 56790U 23078Z   23167.91667824 -.00860295  00000-0 -75934-2 0  9991","SEMIMAJOR_AXIS":"6734.392","ELEMENT_SET_NO":"999","CENTER_NAME":"EARTH","MEAN_MOTION_DDOT":"0.0000000000000","SITE":"AFWTR","DECAY_DATE":null},{"OBJECT_ID":"2023-078AA","RA_OF_ASC_NODE":"6.5122","COUNTRY_CODE":"US","CLASSIFICATION_TYPE":"U","EPHEMERIS_TYPE":"0","EPOCH":"2023-06-16T22:00:00.999936","MEAN_MOTION":"15.71003210","INCLINATION":"70.0019","OBJECT_TYPE":"PAYLOAD","PERIOD":"91.661","BSTAR":"-0.00751350000000","SEMIMAJOR_AXIS":"6734.166","TLE_LINE1":"1 56791U 23078AA  23167.91667824 -.00854694  00000-0 -75135-2 0  9991","SITE":"AFWTR","MEAN_MOTION_DDOT":"0.0000000000000","CENTER_NAME":"EARTH","ELEMENT_SET_NO":"999","DECAY_DATE":null,"REF_FRAME":"TEME","GP_ID":"234098877","FILE":"3934949","NORAD_CAT_ID":"56791","RCS_SIZE":null,"ECCENTRICITY":"0.00037090","PERIAPSIS":"353.533","MEAN_ANOMALY":"356.0673","MEAN_ELEMENT_THEORY":"SGP4","LAUNCH_DATE":"2023-05-31","APOAPSIS":"358.528","MEAN_MOTION_DOT":"-0.00854694","TLE_LINE2":"2 56791  70.0019   6.5122 0003709 272.0748 356.0673 15.71003210  1306","REV_AT_EPOCH":"130","ARG_OF_PERICENTER":"272.0748","OBJECT_NAME":"STARLINK-5977","TIME_SYSTEM":"UTC"},{"BSTAR":"-0.00752120000000","PERIOD":"91.664","OBJECT_TYPE":"PAYLOAD","INCLINATION":"70.0017","MEAN_MOTION":"15.70952182","EPOCH":"2023-06-16T22:00:00.999936","EPHEMERIS_TYPE":"0","DECAY_DATE":null,"ELEMENT_SET_NO":"999","CENTER_NAME":"EARTH","SITE":"AFWTR","MEAN_MOTION_DDOT":"0.0000000000000","TLE_LINE1":"1 56792U 23078AB  23167.91667824 -.00853819  00000-0 -75212-2 0  9996","SEMIMAJOR_AXIS":"6734.311","RA_OF_ASC_NODE":"6.5160","OBJECT_ID":"2023-078AB","CLASSIFICATION_TYPE":"U","COUNTRY_CODE":"US","TLE_LINE2":"2 56792  70.0017   6.5160 0003700 270.9417 354.3229 15.70952182  1306","MEAN_MOTION_DOT":"-0.00853819","TIME_SYSTEM":"UTC","OBJECT_NAME":"STARLINK-6046","ARG_OF_PERICENTER":"270.9417","REV_AT_EPOCH":"130","RCS_SIZE":null,"FILE":"3934949","NORAD_CAT_ID":"56792","GP_ID":"234098923","REF_FRAME":"TEME","APOAPSIS":"358.668","LAUNCH_DATE":"2023-05-31","PERIAPSIS":"353.685","MEAN_ELEMENT_THEORY":"SGP4","MEAN_ANOMALY":"354.3229","ECCENTRICITY":"0.00037000"},{"EPOCH":"2023-06-16T22:00:00.999936","EPHEMERIS_TYPE":"0","MEAN_MOTION":"15.71082107","OBJECT_TYPE":"PAYLOAD","INCLINATION":"70.0024","BSTAR":"-0.00746120000000","PERIOD":"91.657","TLE_LINE1":"1 56793U 23078AC  23167.91667824 -.00851854  00000-0 -74612-2 0  9997","SEMIMAJOR_AXIS":"6733.940","ELEMENT_SET_NO":"999","CENTER_NAME":"EARTH","SITE":"AFWTR","MEAN_MOTION_DDOT":"0.0000000000000","DECAY_DATE":null,"OBJECT_ID":"2023-078AC","RA_OF_ASC_NODE":"6.5072","COUNTRY_CODE":"US","CLASSIFICATION_TYPE":"U","MEAN_MOTION_DOT":"-0.00851854","TLE_LINE2":"2 56793  70.0024   6.5072 0003685 272.4184   0.3193 15.71082107  1307","ARG_OF_PERICENTER":"272.4184","REV_AT_EPOCH":"130","TIME_SYSTEM":"UTC","OBJECT_NAME":"STARLINK-6052","GP_ID":"234098821","REF_FRAME":"TEME","RCS_SIZE":null,"FILE":"3934949","NORAD_CAT_ID":"56793","PERIAPSIS":"353.324","MEAN_ELEMENT_THEORY":"SGP4","MEAN_ANOMALY":"0.3193","ECCENTRICITY":"0.00036850","LAUNCH_DATE":"2023-05-31","APOAPSIS":"358.287"},{"REV_AT_EPOCH":"130","ARG_OF_PERICENTER":"272.8941","OBJECT_NAME":"STARLINK-6060","TIME_SYSTEM":"UTC","MEAN_MOTION_DOT":"-0.00859640","TLE_LINE2":"2 56794  70.0037   6.5157 0003694 272.8941 354.6737 15.70994362  1304","ECCENTRICITY":"0.00036940","PERIAPSIS":"353.568","MEAN_ANOMALY":"354.6737","MEAN_ELEMENT_THEORY":"SGP4","LAUNCH_DATE":"2023-05-31","APOAPSIS":"358.544","GP_ID":"234098983","REF_FRAME":"TEME","RCS_SIZE":null,"FILE":"3934949","NORAD_CAT_ID":"56794","SEMIMAJOR_AXIS":"6734.191","TLE_LINE1":"1 56794U 23078AD  23167.91667824 -.00859640  00000-0 -75644-2 0  9995","SITE":"AFWTR","MEAN_MOTION_DDOT":"0.0000000000000","ELEMENT_SET_NO":"999","CENTER_NAME":"EARTH","DECAY_DATE":null,"EPOCH":"2023-06-16T22:00:00.999936","EPHEMERIS_TYPE":"0","MEAN_MOTION":"15.70994362","INCLINATION":"70.0037","OBJECT_TYPE":"PAYLOAD","PERIOD":"91.662","BSTAR":"-0.00756440000000","COUNTRY_CODE":"US","CLASSIFICATION_TYPE":"U","OBJECT_ID":"2023-078AD","RA_OF_ASC_NODE":"6.5157"},{"MEAN_MOTION_DOT":"-0.00856046","TLE_LINE2":"2 56795  70.0023   6.5028 0003695 271.9369   4.2358 15.71145334  1307","TIME_SYSTEM":"UTC","OBJECT_NAME":"STARLINK-6061","ARG_OF_PERICENTER":"271.9369","REV_AT_EPOCH":"130","GP_ID":"234099118","REF_FRAME":"TEME","RCS_SIZE":null,"FILE":"3934949","NORAD_CAT_ID":"56795","PERIAPSIS":"353.136","MEAN_ANOMALY":"4.2358","MEAN_ELEMENT_THEORY":"SGP4","ECCENTRICITY":"0.00036950","APOAPSIS":"358.113","LAUNCH_DATE":"2023-05-31","MEAN_MOTION":"15.71145334","EPOCH":"2023-06-16T22:00:00.999936","EPHEMERIS_TYPE":"0","BSTAR":"-0.00748170000000","PERIOD":"91.653","OBJECT_TYPE":"PAYLOAD","INCLINATION":"70.0023","ELEMENT_SET_NO":"999","CENTER_NAME":"EARTH","MEAN_MOTION_DDOT":"0.0000000000000","SITE":"AFWTR","SEMIMAJOR_AXIS":"6733.760","TLE_LINE1":"1 56795U 23078AE  23167.91667824 -.00856046  00000-0 -74817-2 0  9994","DECAY_DATE":null,"OBJECT_ID":"2023-078AE","RA_OF_ASC_NODE":"6.5028","CLASSIFICATION_TYPE":"U","COUNTRY_CODE":"US"}];
